{
    "links": {
        "self": "http://www.neowsapp.com/rest/v1/neo/3753834?api_key=iIulBulltgU6a56xZRHN4H3l9WmuAYTsLGpBGhQ2"
    },
    "id": "3753834",
    "neo_reference_id": "3753834",
    "name": "(2016 LV9)",
    "designation": "2016 LV9",
    "nasa_jpl_url": "http://ssd.jpl.nasa.gov/sbdb.cgi?sstr=3753834",
    "absolute_magnitude_h": 25.1,
    "estimated_diameter": {
        "kilometers": {
            "estimated_diameter_min": 0.0253837029,
            "estimated_diameter_max": 0.0567596853
        },
        "meters": {
            "estimated_diameter_min": 25.3837029364,
            "estimated_diameter_max": 56.7596852866
        },
        "miles": {
            "estimated_diameter_min": 0.0157726969,
            "estimated_diameter_max": 0.0352688224
        },
        "feet": {
            "estimated_diameter_min": 83.279867942,
            "estimated_diameter_max": 186.2194458756
        }
    },
    "is_potentially_hazardous_asteroid": false,
    "close_approach_data": [
        {
            "close_approach_date": "2016-06-22",
            "close_approach_date_full": "2016-Jun-22 23:54",
            "epoch_date_close_approach": 1466639640000,
            "relative_velocity": {
                "kilometers_per_second": "8.9637893413",
                "kilometers_per_hour": "32269.6416287669",
                "miles_per_hour": "20051.1003776079"
            },
            "miss_distance": {
                "astronomical": "0.0887708625",
                "lunar": "34.5318655125",
                "kilometers": "13279931.948062875",
                "miles": "8251767.073002675"
            },
            "orbiting_body": "Earth"
        }
    ],
    "orbital_data": {
        "orbit_id": "5",
        "orbit_determination_date": "2017-04-06 08:25:29",
        "first_observation_date": "2016-06-05",
        "last_observation_date": "2016-06-27",
        "data_arc_in_days": 22,
        "observations_used": 16,
        "orbit_uncertainty": "8",
        "minimum_orbit_intersection": ".0886419",
        "jupiter_tisserand_invariant": "3.207",
        "epoch_osculation": "2457546.5",
        "eccentricity": ".5657512552440108",
        "semi_major_axis": "2.49829028637858",
        "inclination": "10.33352656074125",
        "ascending_node_longitude": "80.06815692034488",
        "orbital_period": "1442.32382000483",
        "perihelion_distance": "1.084879420895979",
        "perihelion_argument": "205.5115492988691",
        "aphelion_distance": "3.911701151861181",
        "perihelion_time": "2457574.902437757468",
        "mean_anomaly": "352.9108308059044",
        "mean_motion": ".2495972090364524",
        "equinox": "J2000",
        "orbit_class": {
            "orbit_class_type": "AMO",
            "orbit_class_description": "Near-Earth asteroid orbits similar to that of 1221 Amor",
            "orbit_class_range": "1.017 AU < q (perihelion) < 1.3 AU"
        }
    },
    "is_sentry_object": false
}